ONEWEB-0057             
1 45160U 20008AF  26041.54684801 -.00000705  00000+0 -20551-2 0  9993
2 45160  87.8755  61.5044 0001880  85.2089 274.9253 13.10374649291762
ONEWEB-0058             
1 45161U 20008AG  26041.60992191 -.00000550  00000+0 -16120-2 0  9990
2 45161  87.8748  61.5010 0001733  98.7112 261.4212 13.10370471291845
ONEWEB-0059             
1 45162U 20008AH  26041.60646714 -.00000456  00000+0 -13437-2 0  9991
2 45162  87.8747  61.5026 0001754  96.2126 263.9201 13.10369331291740
ONEWEB-0062             
1 45163U 20008AJ  26042.01399393 -.00000232  00000+0 -69984-3 0  9997
2 45163  87.8767  61.3995 0001749 106.7609 253.3711 13.10375999291660
ONEWEB-0065             
1 45164U 20008AK  26041.51007760  .00000512  00000+0  14302-2 0  9998
2 45164  87.8747  61.5126 0002125  83.9440 276.1929 13.10369996291298
ONEWEB-0066             
1 45424U 20020A   26041.95183207 -.00000420  00000+0 -12208-2 0  9993
2 45424  87.8829  46.1794 0001681  89.6802 270.4519 13.11415929286137
ONEWEB-0067             
1 45425U 20020B   26041.91299489  .00000440  00000+0  12042-2 0  9996
2 45425  87.8837  46.0944 0001870  82.3138 277.8202 13.11417049286185
ONEWEB-0080             
1 45426U 20020C   26041.54071214  .00000436  00000+0  11953-2 0  9995
2 45426  87.8826  46.2602 0001793 101.8303 258.3027 13.11417732286102
ONEWEB-0090             
1 45427U 20020D   26041.94180170 -.00000176  00000+0 -53302-3 0  9990
2 45427  87.8820  46.1815 0001845  92.0720 268.0619 13.11415468286125
ONEWEB-0061             
1 45428U 20020E   26041.43967103  .00000013  00000+0  72434-6 0  9992
2 45428  87.8827  46.2664 0001806  90.5414 269.5921 13.11417152286018
ONEWEB-0081             
1 45429U 20020F   26041.95521603 -.00000430  00000+0 -12498-2 0  9996
2 45429  87.8829  46.1786 0001715  84.0637 276.0686 13.11417581286195
ONEWEB-0069             
1 45430U 20020G   26042.02050634 -.00000226  00000+0 -67419-3 0  9995
2 45430  87.8825  46.1611 0001828  88.3919 271.7419 13.11414552286130
ONEWEB-0031             
1 45431U 20020H   26041.53475744  .00000587  00000+0  16202-2 0  9995
2 45431  87.8820  46.2781 0001853  94.1964 265.9376 13.11416571286059
ONEWEB-0027             
1 45432U 20020J   26041.94808065  .00000090  00000+0  19962-3 0  9993
2 45432  87.9114  30.9172 0002154  95.2614 264.8763 13.17651011289732
ONEWEB-0064             
1 45433U 20020K   26041.53306078  .00000542  00000+0  14947-2 0  9995
2 45433  87.8823  46.2678 0001933  94.9930 265.1419 13.11417472286083
ONEWEB-0018             
1 45434U 20020L   26042.02303922 -.00000335  00000+0 -98140-3 0  9996
2 45434  87.8827  46.1649 0001670  93.1650 266.9669 13.11413685286092
ONEWEB-0083             
1 45435U 20020M   26041.93743194  .00000050  00000+0  10636-3 0  9991
2 45435  87.8825  46.1700 0001817  93.0330 267.1006 13.11415539286128
