[{"OBJECT_NAME":"ONEWEB-0057","OBJECT_ID":"2020-008AF","EPOCH":"2026-02-10T13:07:27.668064","MEAN_MOTION":13.10374649,"ECCENTRICITY":0.00018806,"INCLINATION":87.8755,"RA_OF_ASC_NODE":61.5044,"ARG_OF_PERICENTER":85.2089,"MEAN_ANOMALY":274.9253,"EPHEMERIS_TYPE":0,"CLASSIFICATION_TYPE":"U","NORAD_CAT_ID":45160,"ELEMENT_SET_NO":999,"REV_AT_EPOCH":29176,"BSTAR":-0.0020550568,"MEAN_MOTION_DOT":-7.05e-6,"MEAN_MOTION_DDOT":0},{"OBJECT_NAME":"ONEWEB-0058","OBJECT_ID":"2020-008AG","EPOCH":"2026-02-10T14:38:17.253024","MEAN_MOTION":13.10370471,"ECCENTRICITY":0.00017338,"INCLINATION":87.8748,"RA_OF_ASC_NODE":61.501,"ARG_OF_PERICENTER":98.7112,"MEAN_ANOMALY":261.4212,"EPHEMERIS_TYPE":0,"CLASSIFICATION_TYPE":"U","NORAD_CAT_ID":45161,"ELEMENT_SET_NO":999,"REV_AT_EPOCH":29184,"BSTAR":-0.0016119648,"MEAN_MOTION_DOT":-5.5e-6,"MEAN_MOTION_DDOT":0},{"OBJECT_NAME":"ONEWEB-0059","OBJECT_ID":"2020-008AH","EPOCH":"2026-02-10T14:33:18.760896","MEAN_MOTION":13.10369331,"ECCENTRICITY":0.00017548,"INCLINATION":87.8747,"RA_OF_ASC_NODE":61.5026,"ARG_OF_PERICENTER":96.2126,"MEAN_ANOMALY":263.9201,"EPHEMERIS_TYPE":0,"CLASSIFICATION_TYPE":"U","NORAD_CAT_ID":45162,"ELEMENT_SET_NO":999,"REV_AT_EPOCH":29174,"BSTAR":-0.0013436533,"MEAN_MOTION_DOT":-4.56e-6,"MEAN_MOTION_DDOT":0},{"OBJECT_NAME":"ONEWEB-0062","OBJECT_ID":"2020-008AJ","EPOCH":"2026-02-11T00:20:09.075552","MEAN_MOTION":13.10375999,"ECCENTRICITY":0.00017497,"INCLINATION":87.8767,"RA_OF_ASC_NODE":61.3995,"ARG_OF_PERICENTER":106.7609,"MEAN_ANOMALY":253.3711,"EPHEMERIS_TYPE":0,"CLASSIFICATION_TYPE":"U","NORAD_CAT_ID":45163,"ELEMENT_SET_NO":999,"REV_AT_EPOCH":29166,"BSTAR":-0.00069983587,"MEAN_MOTION_DOT":-2.32e-6,"MEAN_MOTION_DDOT":0},{"OBJECT_NAME":"ONEWEB-0065","OBJECT_ID":"2020-008AK","EPOCH":"2026-02-10T12:14:30.704640","MEAN_MOTION":13.10369996,"ECCENTRICITY":0.00021251,"INCLINATION":87.8747,"RA_OF_ASC_NODE":61.5126,"ARG_OF_PERICENTER":83.944,"MEAN_ANOMALY":276.1929,"EPHEMERIS_TYPE":0,"CLASSIFICATION_TYPE":"U","NORAD_CAT_ID":45164,"ELEMENT_SET_NO":999,"REV_AT_EPOCH":29129,"BSTAR":0.0014302005,"MEAN_MOTION_DOT":5.12e-6,"MEAN_MOTION_DDOT":0},{"OBJECT_NAME":"ONEWEB-0066","OBJECT_ID":"2020-020A","EPOCH":"2026-02-10T22:50:38.290848","MEAN_MOTION":13.11415929,"ECCENTRICITY":0.0001681,"INCLINATION":87.8829,"RA_OF_ASC_NODE":46.1794,"ARG_OF_PERICENTER":89.6802,"MEAN_ANOMALY":270.4519,"EPHEMERIS_TYPE":0,"CLASSIFICATION_TYPE":"U","NORAD_CAT_ID":45424,"ELEMENT_SET_NO":999,"REV_AT_EPOCH":28613,"BSTAR":-0.001220779,"MEAN_MOTION_DOT":-4.2e-6,"MEAN_MOTION_DDOT":0},{"OBJECT_NAME":"ONEWEB-0067","OBJECT_ID":"2020-020B","EPOCH":"2026-02-10T21:54:42.758496","MEAN_MOTION":13.11417049,"ECCENTRICITY":0.00018706,"INCLINATION":87.8837,"RA_OF_ASC_NODE":46.0944,"ARG_OF_PERICENTER":82.3138,"MEAN_ANOMALY":277.8202,"EPHEMERIS_TYPE":0,"CLASSIFICATION_TYPE":"U","NORAD_CAT_ID":45425,"ELEMENT_SET_NO":999,"REV_AT_EPOCH":28618,"BSTAR":0.0012042361,"MEAN_MOTION_DOT":4.4e-6,"MEAN_MOTION_DDOT":0},{"OBJECT_NAME":"ONEWEB-0080","OBJECT_ID":"2020-020C","EPOCH":"2026-02-10T12:58:37.528896","MEAN_MOTION":13.11417732,"ECCENTRICITY":0.00017939,"INCLINATION":87.8826,"RA_OF_ASC_NODE":46.2602,"ARG_OF_PERICENTER":101.8303,"MEAN_ANOMALY":258.3027,"EPHEMERIS_TYPE":0,"CLASSIFICATION_TYPE":"U","NORAD_CAT_ID":45426,"ELEMENT_SET_NO":999,"REV_AT_EPOCH":28610,"BSTAR":0.0011953129,"MEAN_MOTION_DOT":4.36e-6,"MEAN_MOTION_DDOT":0},{"OBJECT_NAME":"ONEWEB-0090","OBJECT_ID":"2020-020D","EPOCH":"2026-02-10T22:36:11.666880","MEAN_MOTION":13.11415468,"ECCENTRICITY":0.00018453,"INCLINATION":87.882,"RA_OF_ASC_NODE":46.1815,"ARG_OF_PERICENTER":92.072,"MEAN_ANOMALY":268.0619,"EPHEMERIS_TYPE":0,"CLASSIFICATION_TYPE":"U","NORAD_CAT_ID":45427,"ELEMENT_SET_NO":999,"REV_AT_EPOCH":28612,"BSTAR":-0.0005330153,"MEAN_MOTION_DOT":-1.76e-6,"MEAN_MOTION_DDOT":0},{"OBJECT_NAME":"ONEWEB-0061","OBJECT_ID":"2020-020E","EPOCH":"2026-02-10T10:33:07.576992","MEAN_MOTION":13.11417152,"ECCENTRICITY":0.00018067,"INCLINATION":87.8827,"RA_OF_ASC_NODE":46.2664,"ARG_OF_PERICENTER":90.5414,"MEAN_ANOMALY":269.5921,"EPHEMERIS_TYPE":0,"CLASSIFICATION_TYPE":"U","NORAD_CAT_ID":45428,"ELEMENT_SET_NO":999,"REV_AT_EPOCH":28601,"BSTAR":7.24345e-7,"MEAN_MOTION_DOT":1.3e-7,"MEAN_MOTION_DDOT":0},{"OBJECT_NAME":"ONEWEB-0081","OBJECT_ID":"2020-020F","EPOCH":"2026-02-10T22:55:30.664992","MEAN_MOTION":13.11417581,"ECCENTRICITY":0.00017151,"INCLINATION":87.8829,"RA_OF_ASC_NODE":46.1786,"ARG_OF_PERICENTER":84.0637,"MEAN_ANOMALY":276.0686,"EPHEMERIS_TYPE":0,"CLASSIFICATION_TYPE":"U","NORAD_CAT_ID":45429,"ELEMENT_SET_NO":999,"REV_AT_EPOCH":28619,"BSTAR":-0.0012498158,"MEAN_MOTION_DOT":-4.3e-6,"MEAN_MOTION_DDOT":0},{"OBJECT_NAME":"ONEWEB-0069","OBJECT_ID":"2020-020G","EPOCH":"2026-02-11T00:29:31.747776","MEAN_MOTION":13.11414552,"ECCENTRICITY":0.00018284,"INCLINATION":87.8825,"RA_OF_ASC_NODE":46.1611,"ARG_OF_PERICENTER":88.3919,"MEAN_ANOMALY":271.7419,"EPHEMERIS_TYPE":0,"CLASSIFICATION_TYPE":"U","NORAD_CAT_ID":45430,"ELEMENT_SET_NO":999,"REV_AT_EPOCH":28613,"BSTAR":-0.0006741929,"MEAN_MOTION_DOT":-2.26e-6,"MEAN_MOTION_DDOT":0},{"OBJECT_NAME":"ONEWEB-0031","OBJECT_ID":"2020-020H","EPOCH":"2026-02-10T12:50:03.042816","MEAN_MOTION":13.11416571,"ECCENTRICITY":0.00018534,"INCLINATION":87.882,"RA_OF_ASC_NODE":46.2781,"ARG_OF_PERICENTER":94.1964,"MEAN_ANOMALY":265.9376,"EPHEMERIS_TYPE":0,"CLASSIFICATION_TYPE":"U","NORAD_CAT_ID":45431,"ELEMENT_SET_NO":999,"REV_AT_EPOCH":28605,"BSTAR":0.0016201894,"MEAN_MOTION_DOT":5.87e-6,"MEAN_MOTION_DDOT":0},{"OBJECT_NAME":"ONEWEB-0027","OBJECT_ID":"2020-020J","EPOCH":"2026-02-10T22:45:14.168160","MEAN_MOTION":13.17651011,"ECCENTRICITY":0.0002154,"INCLINATION":87.9114,"RA_OF_ASC_NODE":30.9172,"ARG_OF_PERICENTER":95.2614,"MEAN_ANOMALY":264.8763,"EPHEMERIS_TYPE":0,"CLASSIFICATION_TYPE":"U","NORAD_CAT_ID":45432,"ELEMENT_SET_NO":999,"REV_AT_EPOCH":28973,"BSTAR":0.0001996202,"MEAN_MOTION_DOT":9.0e-7,"MEAN_MOTION_DDOT":0},{"OBJECT_NAME":"ONEWEB-0064","OBJECT_ID":"2020-020K","EPOCH":"2026-02-10T12:47:36.451392","MEAN_MOTION":13.11417472,"ECCENTRICITY":0.00019335,"INCLINATION":87.8823,"RA_OF_ASC_NODE":46.2678,"ARG_OF_PERICENTER":94.993,"MEAN_ANOMALY":265.1419,"EPHEMERIS_TYPE":0,"CLASSIFICATION_TYPE":"U","NORAD_CAT_ID":45433,"ELEMENT_SET_NO":999,"REV_AT_EPOCH":28608,"BSTAR":0.0014946966,"MEAN_MOTION_DOT":5.42e-6,"MEAN_MOTION_DDOT":0},{"OBJECT_NAME":"ONEWEB-0018","OBJECT_ID":"2020-020L","EPOCH":"2026-02-11T00:33:10.588608","MEAN_MOTION":13.11413685,"ECCENTRICITY":0.00016706,"INCLINATION":87.8827,"RA_OF_ASC_NODE":46.1649,"ARG_OF_PERICENTER":93.165,"MEAN_ANOMALY":266.9669,"EPHEMERIS_TYPE":0,"CLASSIFICATION_TYPE":"U","NORAD_CAT_ID":45434,"ELEMENT_SET_NO":999,"REV_AT_EPOCH":28609,"BSTAR":-0.00098140089,"MEAN_MOTION_DOT":-3.35e-6,"MEAN_MOTION_DDOT":0},{"OBJECT_NAME":"ONEWEB-0083","OBJECT_ID":"2020-020M","EPOCH":"2026-02-10T22:29:54.119616","MEAN_MOTION":13.11415539,"ECCENTRICITY":0.00018176,"INCLINATION":87.8825,"RA_OF_ASC_NODE":46.17,"ARG_OF_PERICENTER":93.033,"MEAN_ANOMALY":267.1006,"EPHEMERIS_TYPE":0,"CLASSIFICATION_TYPE":"U","NORAD_CAT_ID":45435,"ELEMENT_SET_NO":999,"REV_AT_EPOCH":28612,"BSTAR":0.00010636041,"MEAN_MOTION_DOT":5.0e-7,"MEAN_MOTION_DDOT":0}]
